ORBCOMM FM20            
1 25416U 98046D   24346.74086355  .00001832  00000+0  66704-3 0  9991
2 25416  44.9951 348.4909 0002003 301.4341  58.6310 14.36433612377306
ORBCOMM FM14            
1 25419U 98046G   24346.72590360  .00002459  00000+0  85533-3 0  9995
2 25419  44.9964 345.7377 0002181   6.9742 353.1136 14.37800243377220
ORBCOMM FM13            
1 25420U 98046H   24346.75959036  .00002281  00000+0  81318-3 0  9999
2 25420  44.9984 351.8744 0003940  26.8056 333.2995 14.36775397376279
ORBCOMM FM21            
1 25475U 98053A   24346.73026797  .00002103  00000+0  75676-3 0  9997
2 25475  45.0085  76.7424 0001684 265.7390  94.3265 14.36570287370280
ORBCOMM FM22            
1 25476U 98053B   24346.61148636  .00002540  00000+0  88935-3 0  9999
2 25476  45.0075  73.5181 0002659 309.7121  50.3492 14.37382382370630
ORBCOMM FM23            
1 25477U 98053C   24346.74989993  .00002356  00000+0  84018-3 0  9996
2 25477  45.0083  78.9817 0002029 294.4164  65.6472 14.36672283370439
